1 44714U 19074B   22365.05132736  .00003227  00000-0  23542-3 0  9999
2 44714  53.0561  14.8841 0001594  54.9943 305.1195 15.06399442173380
1 44714U 19074B   22365.31669066  .00006405  00000-0  44821-3 0  9993
2 44714  53.0560  13.6935 0001636  52.9097 307.2042 15.06426160173253
1 44714U 19074B   22365.31669066  .00006405  00000-0  44821-3 0  9993
2 44714  53.0560  13.6935 0001636  52.9097 307.2042 15.06426160173422
1 44714U 19074B   22365.71479597  .00003021  00000-0  22163-3 0  9991
2 44714  53.0563  11.9064 0001872  56.4125 303.7042 15.06396434173311
1 44714U 19074B   23001.04654380  .00000235  00000-0  34704-4 0  9999
2 44714  53.0567  10.4175 0001715  61.8790 298.2372 15.06385622173531
1 44714U 19074B   23001.44461729 -.00001835  00000-0 -10435-3 0  9999
2 44714  53.0557   8.6302 0001693  55.2462 304.8686 15.06394646173425
1 44714U 19074B   23001.44461729 -.00001835  00000-0 -10435-3 0  9999
2 44714  53.0557   8.6302 0001693  55.2462 304.8686 15.06394646173593
1 44714U 19074B   23001.71000164 -.00001519  00000-0 -83065-4 0  9990
2 44714  53.0564   7.4397 0001743  57.9144 302.2014 15.06400262173469
1 44714U 19074B   23002.43981717 -.00003833  00000-0 -23856-3 0  9994
2 44714  53.0553   4.1621 0001761  58.9645 301.1517 15.06400854173573
1 44714U 19074B   23002.43981717 -.00003833  00000-0 -23856-3 0  9994
2 44714  53.0553   4.1621 0001761  58.9645 301.1517 15.06400854173742
1 44714U 19074B   23002.70520329 -.00000891  00000-0 -40915-4 0  9999
2 44714  53.0560   2.9712 0001883  56.6860 303.4309 15.06404710173611
1 44714U 19074B   23003.03694980  .00001886  00000-0  14553-3 0  9992
2 44714  53.0565   1.4827 0001756  60.7932 299.3232 15.06386640173835
1 44714U 19074B   23003.36868416  .00002357  00000-0  17715-3 0  9992
2 44714  53.0558 359.9931 0001943  61.7343 298.3842 15.06392086173713
1 44714U 19074B   23004.23119406  .00003385  00000-0  24606-3 0  9996
2 44714  53.0551 356.1203 0001728  60.4179 299.6982 15.06397160173842
1 44714U 19074B   23004.23119406  .00003385  00000-0  24606-3 0  9996
2 44714  53.0551 356.1203 0001728  60.4179 299.6982 15.06397160174012
1 44714U 19074B   23004.69561425  .00005160  00000-0  36494-3 0  9999
2 44714  53.0553 354.0352 0001740  62.0163 298.1002 15.06412168173912
1 44714U 19074B   23004.69561425  .00005160  00000-0  36494-3 0  9999
2 44714  53.0553 354.0352 0001740  62.0163 298.1002 15.06412168174081
1 44714U 19074B   23005.35907755  .00007136  00000-0  49721-3 0  9995
2 44714  53.0548 351.0564 0001758  64.5636 295.5535 15.06419314174013
1 44714U 19074B   23006.35428210 -.00005463  00000-0 -34821-3 0  9998
2 44714  53.0553 346.5887 0001705  63.7243 296.3921 15.06390528174331
1 44714U 19074B   23006.95140848 -.00001784  00000-0 -10091-3 0  9997
2 44714  53.0545 343.9094 0001709  48.1274 311.9860 15.06388630174256
1 44714U 19074B   23007.21679424  .00004517  00000-0  32194-3 0  9997
2 44714  53.0548 342.7180 0001734  60.1500 299.9662 15.06401836174299
1 44714U 19074B   23007.34949147  .00019845  00000-0  13472-2 0  9990
2 44714  53.0556 342.1225 0001815  64.2764 295.8413 15.06406103174481
1 44714U 19074B   23007.61487966  .00007278  00000-0  50719-3 0  9999
2 44714  53.0559 340.9297 0002452  68.0813 292.0437 15.06384917174522
1 44714U 19074B   23007.94661859 -.00000326  00000-0 -29561-5 0  9992
2 44714  53.0544 339.4420 0001618  69.3427 290.7735 15.06386910174403
1 44714U 19074B   23008.34470098  .00003483  00000-0  25264-3 0  9999
2 44714  53.0530 337.6557 0001706  65.7464 294.3703 15.06393269174464
1 44714U 19074B   23008.87547228  .00006282  00000-0  44018-3 0  9995
2 44714  53.0538 335.2727 0001763  67.8368 292.2808 15.06406350174711
1 44714U 19074B   23008.94182059  .00005079  00000-0  35961-3 0  9990
2 44714  53.0551 334.9743 0001691  68.8065 291.3104 15.06401870174558
1 44714U 19074B   23009.27355510  .00003194  00000-0  23323-3 0  9996
2 44714  53.0551 333.4852 0001709  67.0110 293.1060 15.06400615174608
1 44714U 19074B   23009.27355510  .00003194  00000-0  23323-3 0  9996
2 44714  53.0551 333.4852 0001709  67.0110 293.1060 15.06400615174776
1 44714U 19074B   23010.20241057  .00001452  00000-0  11633-3 0  9997
2 44714  53.0560 329.3163 0001632  64.6998 295.4160 15.06399064174745
1 44714U 19074B   23010.20241057  .00001452  00000-0  11633-3 0  9997
2 44714  53.0560 329.3163 0001632  64.6998 295.4160 15.06399064174914
1 44714U 19074B   23010.86587966  .00001688  00000-0  13216-3 0  9991
2 44714  53.0558 326.3375 0001639  66.9244 293.1918 15.06400112174844
1 44714U 19074B   23011.59568846  .00006027  00000-0  42298-3 0  9992
2 44714  53.0551 323.0606 0001662  70.9682 289.1487 15.06414313174951
1 44714U 19074B   23011.66203490  .00007845  00000-0  54473-3 0  9998
2 44714  53.0547 322.7636 0001613  68.8819 291.2342 15.06416217175139
1 44714U 19074B   23011.86107712  .00003705  00000-0  26745-3 0  9992
2 44714  53.0548 321.8699 0001479  71.2552 288.8597 15.06405103174990
1 44714U 19074B   23012.12646165  .00001952  00000-0  14991-3 0  9994
2 44714  53.0560 320.6791 0001520  63.9073 296.2073 15.06406372175203
1 44714U 19074B   23012.65723949  .00000859  00000-0  76570-4 0  9995
2 44714  53.0550 318.2972 0001607  66.5673 293.5485 15.06399978175117
1 44714U 19074B   23012.65723949  .00000859  00000-0  76570-4 0  9995
2 44714  53.0550 318.2972 0001607  66.5673 293.5485 15.06399978175285
1 44714U 19074B   23013.51974826 -.00000652  00000-0 -24905-4 0  9991
2 44714  53.0558 314.4237 0001362  72.6610 287.4528 15.06402240175245
1 44714U 19074B   23014.11687064  .00000436  00000-0  48148-4 0  9996
2 44714  53.0560 311.7432 0001314  72.0854 288.0278 15.06398645175507
1 44714U 19074B   23014.84667687  .00004551  00000-0  32413-3 0  9994
2 44714  53.0551 308.4667 0001321  74.9374 285.1761 15.06410791175610
1 44714U 19074B   23015.11205391  .00007309  00000-0  50872-3 0  9998
2 44714  53.0547 307.2753 0001060  61.8432 298.2664 15.06425770175652
1 44714U 19074B   23015.17839737  .00007274  00000-0  50633-3 0  9997
2 44714  53.0551 306.9768 0001312  73.5949 286.5184 15.06430502175490
1 44714U 19074B   23016.10728023 -.00001695  00000-0 -94973-4 0  9995
2 44714  53.0555 302.8072 0001269  78.4459 281.6672 15.06387427175808
1 44714U 19074B   23016.57171186 -.00005837  00000-0 -37357-3 0  9992
2 44714  53.0540 300.7243 0001234 114.3825 245.7293 15.06373955175708
1 44714U 19074B   23016.57171186 -.00005837  00000-0 -37357-3 0  9992
2 44714  53.0540 300.7243 0001234 114.3825 245.7293 15.06373955175876
1 44714U 19074B   23017.50058214 -.00000091  00000-0  12814-4 0  9990
2 44714  53.0540 296.5531 0001312 110.7663 249.3467 15.06381499175847
1 44714U 19074B   23017.50058214 -.00000091  00000-0  12814-4 0  9990
2 44714  53.0540 296.5531 0001312 110.7663 249.3467 15.06381499176017
1 44714U 19074B   23018.56214028  .00014455  00000-0  98701-3 0  9990
2 44714  53.0543 291.7883 0001140 133.4623 226.6461 15.06411846176005
1 44714U 19074B   23018.89387087  .00012653  00000-0  86639-3 0  9997
2 44714  53.0543 290.2988 0001208 133.5243 226.5846 15.06418605176229
1 44714U 19074B   23019.55733719 -.00000299  00000-0 -12020-5 0  9998
2 44714  53.0542 287.3214 0001266 116.6214 243.4904 15.06404575176157
1 44714U 19074B   23019.75638117 -.00006965  00000-0 -44927-3 0  9991
2 44714  53.0541 286.4278 0001415 114.7883 245.3253 15.06390375176355
1 44714U 19074B   23020.41985442  .00009806  00000-0  67639-3 0  9992
2 44714  53.0543 283.4492 0000978 106.8332 253.2764 15.06394227176283
1 44714U 19074B   23021.08332192  .00016522  00000-0  11250-2 0  9994
2 44714  53.0541 280.4707 0001037 103.5826 256.5278 15.06414697176556
1 44714U 19074B   23021.41505764  .00010426  00000-0  71766-3 0  9994
2 44714  53.0543 278.9801 0001189  93.1163 266.9962 15.06407103176606
1 44714U 19074B   23021.87948400  .00007532  00000-0  52387-3 0  9994
2 44714  53.0535 276.8963 0001307  93.0190 267.0948 15.06408931176677
1 44714U 19074B   23022.41025683  .00003508  00000-0  25422-3 0  9993
2 44714  53.0535 274.5107 0001853  79.3830 280.7367 15.06407833176752
1 44714U 19074B   23023.40545859  .00004434  00000-0  31633-3 0  9995
2 44714  53.0531 270.0478 0001340  86.9019 273.2123 15.06402399176900
1 44714U 19074B   23024.79874209  .00002721  00000-0  20149-3 0  9999
2 44714  53.0533 263.7874 0001199 102.1859 257.9264 15.06400837177110
1 44714U 19074B   23025.06412916  .00002065  00000-0  15746-3 0  9991
2 44714  53.0540 262.5971 0001234  88.3753 271.7377 15.06402507176980
1 44714U 19074B   23025.79394884  .00000337  00000-0  41534-4 0  9999
2 44714  53.0544 259.3192 0001211  99.6857 260.4268 15.06393900177091
1 44714U 19074B   23025.79394884  .00000337  00000-0  41534-4 0  9999
2 44714  53.0544 259.3192 0001211  99.6857 260.4268 15.06393900177260
1 44714U 19074B   23026.05933739  .00000166  00000-0  30004-4 0  9997
2 44714  53.0544 258.1289 0001124  83.8730 276.2387 15.06393750177138
1 44714U 19074B   23026.92183960  .00001837  00000-0  14217-3 0  9999
2 44714  53.0541 254.2584 0001035  81.9306 278.1801 15.06404558177433
1 44714U 19074B   23027.45262602  .00001110  00000-0  93440-4 0  9999
2 44714  53.0540 251.8770 0000965  81.4744 278.6354 15.06388788177348
1 44714U 19074B   23027.45262602  .00001110  00000-0  93440-4 0  9999
2 44714  53.0540 251.8770 0000965  81.4744 278.6354 15.06388788177517
1 44714U 19074B   23027.85071031  .00000617  00000-0  60293-4 0  9998
2 44714  53.0539 250.0899 0001051  83.4757 276.6352 15.06387659177401
1 44714U 19074B   23028.38148105  .00000640  00000-0  61843-4 0  9992
2 44714  53.0536 247.7072 0001081  84.5300 275.5812 15.06395506177480
1 44714U 19074B   23028.77955694  .00000666  00000-0  63563-4 0  9993
2 44714  53.0537 245.9203 0001054  85.9231 274.1879 15.06403163177718
1 44714U 19074B   23028.91224888  .00000826  00000-0  74294-4 0  9994
2 44714  53.0537 245.3246 0001075  86.1149 273.9962 15.06404655177563
1 44714U 19074B   23029.37668303  .00000693  00000-0  65390-4 0  9998
2 44714  53.0535 243.2392 0001110  88.0266 272.0850 15.06394613177806
1 44714U 19074B   23029.84111596  .00000793  00000-0  72170-4 0  9992
2 44714  53.0534 241.1543 0001145  81.6942 278.4177 15.06389508177706
1 44714U 19074B   23030.57092621  .00000200  00000-0  32334-4 0  9992
2 44714  53.0534 237.8781 0001168  76.0659 284.0460 15.06400347177815
1 44714U 19074B   23030.57092621  .00000200  00000-0  32334-4 0  9992
2 44714  53.0534 237.8781 0001168  76.0659 284.0460 15.06400347177983
1 44714U 19074B   23031.83151369  .00001087  00000-0  91849-4 0  9997
2 44714  53.0533 232.2179 0001204  83.4958 276.6168 15.06397867178005
1 44714U 19074B   23031.83151369  .00001087  00000-0  91849-4 0  9997
2 44714  53.0533 232.2179 0001204  83.4958 276.6168 15.06397867178173
